{"fetched_at":"2026-07-19T07:05:14.667Z","source":"https://celestrak.org/NORAD/elements/gp.php?NAME=HULIANWANG&FORMAT=JSON","constellation":"guowang","records":[{"OBJECT_NAME":"HULIANWANG DIGUI-124","OBJECT_ID":"2025-295F","EPOCH":"2026-07-18T12:57:22.618368","CLASSIFICATION_TYPE":"U","MEAN_MOTION":13.29329418,"ECCENTRICITY":0.0001121,"INCLINATION":49.9995,"RA_OF_ASC_NODE":272.8945,"ARG_OF_PERICENTER":203.6036,"MEAN_ANOMALY":156.4785,"EPHEMERIS_TYPE":0,"NORAD_CAT_ID":67064,"ELEMENT_SET_NO":999,"REV_AT_EPOCH":2967,"BSTAR":0.000075244,"MEAN_MOTION_DOT":-8.9e-7,"MEAN_MOTION_DDOT":0},{"OBJECT_NAME":"HULIANWANG DIGUI-125","OBJECT_ID":"2025-295G","EPOCH":"2026-07-18T05:32:13.122816","CLASSIFICATION_TYPE":"U","MEAN_MOTION":13.29330048,"ECCENTRICITY":0.00010929,"INCLINATION":49.9988,"RA_OF_ASC_NODE":273.9127,"ARG_OF_PERICENTER":201.6185,"MEAN_ANOMALY":158.4641,"EPHEMERIS_TYPE":0,"NORAD_CAT_ID":67065,"ELEMENT_SET_NO":999,"REV_AT_EPOCH":2963,"BSTAR":0.000076617927,"MEAN_MOTION_DOT":-8.8e-7,"MEAN_MOTION_DDOT":0},{"OBJECT_NAME":"HULIANWANG DIGUI-126","OBJECT_ID":"2025-295H","EPOCH":"2026-07-18T12:33:11.523456","CLASSIFICATION_TYPE":"U","MEAN_MOTION":13.29322906,"ECCENTRICITY":0.0001143,"INCLINATION":49.999,"RA_OF_ASC_NODE":272.7949,"ARG_OF_PERICENTER":199.4288,"MEAN_ANOMALY":160.654,"EPHEMERIS_TYPE":0,"NORAD_CAT_ID":67066,"ELEMENT_SET_NO":999,"REV_AT_EPOCH":2967,"BSTAR":0.00005486235,"MEAN_MOTION_DOT":-9.9e-7,"MEAN_MOTION_DDOT":0},{"OBJECT_NAME":"HULIANWANG DIGUI-127","OBJECT_ID":"2025-295J","EPOCH":"2026-07-18T14:09:19.774944","CLASSIFICATION_TYPE":"U","MEAN_MOTION":13.29331078,"ECCENTRICITY":0.000114,"INCLINATION":50.0005,"RA_OF_ASC_NODE":272.5163,"ARG_OF_PERICENTER":203.7269,"MEAN_ANOMALY":156.355,"EPHEMERIS_TYPE":0,"NORAD_CAT_ID":67067,"ELEMENT_SET_NO":999,"REV_AT_EPOCH":2968,"BSTAR":0.000063623,"MEAN_MOTION_DOT":-9.5e-7,"MEAN_MOTION_DDOT":0},{"OBJECT_NAME":"HULIANWANG DIGUI-128","OBJECT_ID":"2025-311A","EPOCH":"2026-07-18T20:05:56.918976","CLASSIFICATION_TYPE":"U","MEAN_MOTION":13.29323771,"ECCENTRICITY":0.0000923,"INCLINATION":50.0101,"RA_OF_ASC_NODE":2.0451,"ARG_OF_PERICENTER":86.9009,"MEAN_ANOMALY":273.1969,"EPHEMERIS_TYPE":0,"NORAD_CAT_ID":67236,"ELEMENT_SET_NO":999,"REV_AT_EPOCH":2755,"BSTAR":0.0000024199,"MEAN_MOTION_DOT":-0.00000123,"MEAN_MOTION_DDOT":0},{"OBJECT_NAME":"HULIANWANG DIGUI-129","OBJECT_ID":"2025-311B","EPOCH":"2026-07-18T16:41:21.130944","CLASSIFICATION_TYPE":"U","MEAN_MOTION":13.29324968,"ECCENTRICITY":0.0000864,"INCLINATION":50.0089,"RA_OF_ASC_NODE":2.6085,"ARG_OF_PERICENTER":88.9921,"MEAN_ANOMALY":271.1051,"EPHEMERIS_TYPE":0,"NORAD_CAT_ID":67237,"ELEMENT_SET_NO":999,"REV_AT_EPOCH":2753,"BSTAR":-0.0000085694,"MEAN_MOTION_DOT":-0.00000128,"MEAN_MOTION_DDOT":0},{"OBJECT_NAME":"HULIANWANG DIGUI-130","OBJECT_ID":"2025-311C","EPOCH":"2026-07-18T19:41:52.437120","CLASSIFICATION_TYPE":"U","MEAN_MOTION":13.29323635,"ECCENTRICITY":0.0000961,"INCLINATION":50.0067,"RA_OF_ASC_NODE":2.5602,"ARG_OF_PERICENTER":86.1431,"MEAN_ANOMALY":273.9551,"EPHEMERIS_TYPE":0,"NORAD_CAT_ID":67238,"ELEMENT_SET_NO":999,"REV_AT_EPOCH":2754,"BSTAR":0.000030407,"MEAN_MOTION_DOT":-0.0000011,"MEAN_MOTION_DDOT":0},{"OBJECT_NAME":"HULIANWANG DIGUI-131","OBJECT_ID":"2025-311D","EPOCH":"2026-07-18T19:53:55.288032","CLASSIFICATION_TYPE":"U","MEAN_MOTION":13.29323487,"ECCENTRICITY":0.000097,"INCLINATION":50.0067,"RA_OF_ASC_NODE":2.5961,"ARG_OF_PERICENTER":86.7126,"MEAN_ANOMALY":273.3857,"EPHEMERIS_TYPE":0,"NORAD_CAT_ID":67239,"ELEMENT_SET_NO":999,"REV_AT_EPOCH":2754,"BSTAR":0.000025834,"MEAN_MOTION_DOT":-0.00000112,"MEAN_MOTION_DDOT":0},{"OBJECT_NAME":"HULIANWANG DIGUI-132","OBJECT_ID":"2025-311E","EPOCH":"2026-07-18T19:17:47.067936","CLASSIFICATION_TYPE":"U","MEAN_MOTION":13.29324241,"ECCENTRICITY":0.0000912,"INCLINATION":50.0076,"RA_OF_ASC_NODE":2.4872,"ARG_OF_PERICENTER":84.951,"MEAN_ANOMALY":275.1466,"EPHEMERIS_TYPE":0,"NORAD_CAT_ID":67240,"ELEMENT_SET_NO":999,"REV_AT_EPOCH":2754,"BSTAR":0.000026301,"MEAN_MOTION_DOT":-0.00000112,"MEAN_MOTION_DDOT":0},{"OBJECT_NAME":"HULIANWANG DIGUI-133","OBJECT_ID":"2025-311F","EPOCH":"2026-07-18T20:42:01.473120","CLASSIFICATION_TYPE":"U","MEAN_MOTION":13.29324304,"ECCENTRICITY":0.0000897,"INCLINATION":50.0122,"RA_OF_ASC_NODE":2.2069,"ARG_OF_PERICENTER":87.2964,"MEAN_ANOMALY":272.8011,"EPHEMERIS_TYPE":0,"NORAD_CAT_ID":67241,"ELEMENT_SET_NO":999,"REV_AT_EPOCH":2755,"BSTAR":0.000036858,"MEAN_MOTION_DOT":-0.00000107,"MEAN_MOTION_DDOT":0},{"OBJECT_NAME":"HULIANWANG DIGUI-134","OBJECT_ID":"2025-311G","EPOCH":"2026-07-18T17:17:29.408064","CLASSIFICATION_TYPE":"U","MEAN_MOTION":13.29324043,"ECCENTRICITY":0.0000915,"INCLINATION":50.005,"RA_OF_ASC_NODE":2.6716,"ARG_OF_PERICENTER":86.1026,"MEAN_ANOMALY":273.9951,"EPHEMERIS_TYPE":0,"NORAD_CAT_ID":67242,"ELEMENT_SET_NO":999,"REV_AT_EPOCH":2753,"BSTAR":0.000044373,"MEAN_MOTION_DOT":-0.00000103,"MEAN_MOTION_DDOT":0},{"OBJECT_NAME":"HULIANWANG DIGUI-135","OBJECT_ID":"2025-311H","EPOCH":"2026-07-18T19:29:48.779232","CLASSIFICATION_TYPE":"U","MEAN_MOTION":13.29323679,"ECCENTRICITY":0.0000927,"INCLINATION":50.0033,"RA_OF_ASC_NODE":2.464,"ARG_OF_PERICENTER":84.5122,"MEAN_ANOMALY":275.5856,"EPHEMERIS_TYPE":0,"NORAD_CAT_ID":67243,"ELEMENT_SET_NO":999,"REV_AT_EPOCH":2754,"BSTAR":0.000019563,"MEAN_MOTION_DOT":-0.00000115,"MEAN_MOTION_DDOT":0},{"OBJECT_NAME":"HULIANWANG DIGUI-136","OBJECT_ID":"2025-311J","EPOCH":"2026-07-18T16:53:24.883008","CLASSIFICATION_TYPE":"U","MEAN_MOTION":13.2932467,"ECCENTRICITY":0.000086,"INCLINATION":50.011,"RA_OF_ASC_NODE":2.6825,"ARG_OF_PERICENTER":88.7412,"MEAN_ANOMALY":271.3559,"EPHEMERIS_TYPE":0,"NORAD_CAT_ID":67244,"ELEMENT_SET_NO":999,"REV_AT_EPOCH":2753,"BSTAR":0.000022524,"MEAN_MOTION_DOT":-0.00000114,"MEAN_MOTION_DDOT":0},{"OBJECT_NAME":"HULIANWANG DIGUI-137","OBJECT_ID":"2026-007A","EPOCH":"2026-07-18T17:32:59.315712","CLASSIFICATION_TYPE":"U","MEAN_MOTION":13.2932705,"ECCENTRICITY":0.0000908,"INCLINATION":50.0099,"RA_OF_ASC_NODE":332.7262,"ARG_OF_PERICENTER":124.5325,"MEAN_ANOMALY":235.5633,"EPHEMERIS_TYPE":0,"NORAD_CAT_ID":67435,"ELEMENT_SET_NO":999,"REV_AT_EPOCH":2498,"BSTAR":0.000051136,"MEAN_MOTION_DOT":-0.000001,"MEAN_MOTION_DDOT":0},{"OBJECT_NAME":"HULIANWANG DIGUI-138","OBJECT_ID":"2026-007B","EPOCH":"2026-07-18T17:57:05.851296","CLASSIFICATION_TYPE":"U","MEAN_MOTION":13.29325395,"ECCENTRICITY":0.0000885,"INCLINATION":50.0078,"RA_OF_ASC_NODE":332.7817,"ARG_OF_PERICENTER":126.4159,"MEAN_ANOMALY":233.6795,"EPHEMERIS_TYPE":0,"NORAD_CAT_ID":67436,"ELEMENT_SET_NO":999,"REV_AT_EPOCH":2498,"BSTAR":0.000039404,"MEAN_MOTION_DOT":-0.00000106,"MEAN_MOTION_DDOT":0},{"OBJECT_NAME":"HULIANWANG DIGUI-139","OBJECT_ID":"2026-007C","EPOCH":"2026-07-18T17:44:48.683040","CLASSIFICATION_TYPE":"U","MEAN_MOTION":13.29328346,"ECCENTRICITY":0.0000868,"INCLINATION":50.0048,"RA_OF_ASC_NODE":332.6924,"ARG_OF_PERICENTER":113.5123,"MEAN_ANOMALY":246.5841,"EPHEMERIS_TYPE":0,"NORAD_CAT_ID":67437,"ELEMENT_SET_NO":999,"REV_AT_EPOCH":2498,"BSTAR":0.000044338,"MEAN_MOTION_DOT":-0.00000103,"MEAN_MOTION_DDOT":0}]}
