HULIANWANG DIGUI-124    
1 67064U 25295F   26199.53984512 -.00000089  00000+0  75244-4 0  9993
2 67064  49.9995 272.8945 0001121 203.6036 156.4785 13.29329418 29674
HULIANWANG DIGUI-125    
1 67065U 25295G   26199.23070744 -.00000088  00000+0  76618-4 0  9999
2 67065  49.9988 273.9127 0001092 201.6185 158.4641 13.29330048 29631
HULIANWANG DIGUI-126    
1 67066U 25295H   26199.52305004 -.00000099  00000+0  54862-4 0  9991
2 67066  49.9990 272.7949 0001143 199.4288 160.6540 13.29322906 29670
HULIANWANG DIGUI-127    
1 67067U 25295J   26199.58981221 -.00000095  00000+0  63623-4 0  9990
2 67067  50.0005 272.5163 0001140 203.7269 156.3550 13.29331078 29686
HULIANWANG DIGUI-128    
1 67236U 25311A   26199.83746434 -.00000123  00000+0  24199-5 0  9998
2 67236  50.0101   2.0451 0000923  86.9009 273.1969 13.29323771 27555
HULIANWANG DIGUI-129    
1 67237U 25311B   26199.69538346 -.00000128  00000+0 -85694-5 0  9997
2 67237  50.0089   2.6085 0000864  88.9921 271.1051 13.29324968 27536
HULIANWANG DIGUI-130    
1 67238U 25311C   26199.82074580 -.00000110  00000+0  30407-4 0  9999
2 67238  50.0067   2.5602 0000961  86.1431 273.9551 13.29323635 27547
HULIANWANG DIGUI-131    
1 67239U 25311D   26199.82911213 -.00000112  00000+0  25834-4 0  9993
2 67239  50.0067   2.5961 0000970  86.7126 273.3857 13.29323487 27541
HULIANWANG DIGUI-132    
1 67240U 25311E   26199.80401699 -.00000112  00000+0  26301-4 0  9995
2 67240  50.0076   2.4872 0000912  84.9510 275.1466 13.29324241 27541
HULIANWANG DIGUI-133    
1 67241U 25311F   26199.86251705 -.00000107  00000+0  36858-4 0  9995
2 67241  50.0122   2.2069 0000897  87.2964 272.8011 13.29324304 27552
HULIANWANG DIGUI-134    
1 67242U 25311G   26199.72047926 -.00000103  00000+0  44373-4 0  9996
2 67242  50.0050   2.6716 0000915  86.1026 273.9951 13.29324043 27537
HULIANWANG DIGUI-135    
1 67243U 25311H   26199.81237013 -.00000115  00000+0  19563-4 0  9991
2 67243  50.0033   2.4640 0000927  84.5122 275.5856 13.29323679 27542
HULIANWANG DIGUI-136    
1 67244U 25311J   26199.70376022 -.00000114  00000+0  22524-4 0  9994
2 67244  50.0110   2.6825 0000860  88.7412 271.3559 13.29324670 27535
HULIANWANG DIGUI-137    
1 67435U 26007A   26199.73124208 -.00000100  00000+0  51136-4 0  9995
2 67435  50.0099 332.7262 0000908 124.5325 235.5633 13.29327050 24986
HULIANWANG DIGUI-138    
1 67436U 26007B   26199.74798439 -.00000106  00000+0  39404-4 0  9990
2 67436  50.0078 332.7817 0000885 126.4159 233.6795 13.29325395 24988
HULIANWANG DIGUI-139    
1 67437U 26007C   26199.73945235 -.00000103  00000+0  44338-4 0  9997
2 67437  50.0048 332.6924 0000868 113.5123 246.5841 13.29328346 24987
